{
  "links" : {
    "next" : "https://api.nasa.gov/neo/rest/v1/feed?start_date=2007-04-09&end_date=2007-04-09&detailed=true&api_key=t0TVs3DtDT2H8Oy2Zy8m2eVrNsAVKAexjcZXUckd",
    "prev" : "https://api.nasa.gov/neo/rest/v1/feed?start_date=2007-04-07&end_date=2007-04-07&detailed=true&api_key=t0TVs3DtDT2H8Oy2Zy8m2eVrNsAVKAexjcZXUckd",
    "self" : "https://api.nasa.gov/neo/rest/v1/feed?start_date=2007-04-08&end_date=2007-04-08&detailed=true&api_key=t0TVs3DtDT2H8Oy2Zy8m2eVrNsAVKAexjcZXUckd"
  },
  "element_count" : 7,
  "near_earth_objects" : {
    "2007-04-08" : [ {
      "links" : {
        "self" : "https://api.nasa.gov/neo/rest/v1/neo/3005871?api_key=t0TVs3DtDT2H8Oy2Zy8m2eVrNsAVKAexjcZXUckd"
      },
      "neo_reference_id" : "3005871",
      "name" : "(1993 HC)",
      "nasa_jpl_url" : "http://ssd.jpl.nasa.gov/sbdb.cgi?sstr=3005871",
      "absolute_magnitude_h" : 20.6,
      "estimated_diameter" : {
        "kilometers" : {
          "estimated_diameter_min" : 0.2016299194,
          "estimated_diameter_max" : 0.4508582062
        },
        "meters" : {
          "estimated_diameter_min" : 201.6299194428,
          "estimated_diameter_max" : 450.8582061718
        },
        "miles" : {
          "estimated_diameter_min" : 0.1252869847,
          "estimated_diameter_max" : 0.2801502144
        },
        "feet" : {
          "estimated_diameter_min" : 661.5155049046,
          "estimated_diameter_max" : 1479.1936371367
        }
      },
      "is_potentially_hazardous_asteroid" : false,
      "close_approach_data" : [ {
        "close_approach_date" : "2007-04-08",
        "epoch_date_close_approach" : 1176015600000,
        "relative_velocity" : {
          "kilometers_per_second" : "14.5348270898",
          "kilometers_per_hour" : "52325.3775234283",
          "miles_per_hour" : "32512.9547172658"
        },
        "miss_distance" : {
          "astronomical" : "0.1949305617",
          "lunar" : "75.8279876709",
          "kilometers" : "29161198",
          "miles" : "18119928"
        },
        "orbiting_body" : "Earth"
      } ],
      "orbital_data" : {
        "orbit_id" : "13",
        "orbit_determination_date" : "2017-04-06 09:18:20",
        "orbit_uncertainty" : "6",
        "minimum_orbit_intersection" : ".0687616",
        "jupiter_tisserand_invariant" : "3.666",
        "epoch_osculation" : "2458000.5",
        "eccentricity" : ".5087773533207807",
        "semi_major_axis" : "1.989035491193691",
        "inclination" : "9.421126630951822",
        "ascending_node_longitude" : "201.1335761117651",
        "orbital_period" : "1024.618576894469",
        "perihelion_distance" : ".9770592783230658",
        "perihelion_argument" : "306.791064510831",
        "aphelion_distance" : "3.001011704064316",
        "perihelion_time" : "2458262.809242637496",
        "mean_anomaly" : "267.8375802674671",
        "mean_motion" : ".351350256688815",
        "equinox" : "J2000"
      }
    }, {
      "links" : {
        "self" : "https://api.nasa.gov/neo/rest/v1/neo/2216523?api_key=t0TVs3DtDT2H8Oy2Zy8m2eVrNsAVKAexjcZXUckd"
      },
      "neo_reference_id" : "2216523",
      "name" : "216523 (2001 HY7)",
      "nasa_jpl_url" : "http://ssd.jpl.nasa.gov/sbdb.cgi?sstr=2216523",
      "absolute_magnitude_h" : 20.6,
      "estimated_diameter" : {
        "kilometers" : {
          "estimated_diameter_min" : 0.2016299194,
          "estimated_diameter_max" : 0.4508582062
        },
        "meters" : {
          "estimated_diameter_min" : 201.6299194428,
          "estimated_diameter_max" : 450.8582061718
        },
        "miles" : {
          "estimated_diameter_min" : 0.1252869847,
          "estimated_diameter_max" : 0.2801502144
        },
        "feet" : {
          "estimated_diameter_min" : 661.5155049046,
          "estimated_diameter_max" : 1479.1936371367
        }
      },
      "is_potentially_hazardous_asteroid" : true,
      "close_approach_data" : [ {
        "close_approach_date" : "2007-04-08",
        "epoch_date_close_approach" : 1176015600000,
        "relative_velocity" : {
          "kilometers_per_second" : "25.5992722926",
          "kilometers_per_hour" : "92157.3802532531",
          "miles_per_hour" : "57263.0121912505"
        },
        "miss_distance" : {
          "astronomical" : "0.4462931218",
          "lunar" : "173.6080169678",
          "kilometers" : "66764500",
          "miles" : "41485536"
        },
        "orbiting_body" : "Earth"
      } ],
      "orbital_data" : {
        "orbit_id" : "67",
        "orbit_determination_date" : "2017-04-06 09:25:20",
        "orbit_uncertainty" : "0",
        "minimum_orbit_intersection" : ".0355235",
        "jupiter_tisserand_invariant" : "6.454",
        "epoch_osculation" : "2456346.5",
        "eccentricity" : ".4120948370750944",
        "semi_major_axis" : ".9138520280653585",
        "inclination" : "5.208499321631484",
        "ascending_node_longitude" : "205.2425729545676",
        "orbital_period" : "319.0893040944803",
        "perihelion_distance" : ".53725832544902",
        "perihelion_argument" : "211.1301076969899",
        "aphelion_distance" : "1.290445730681697",
        "perihelion_time" : "2456372.826237359775",
        "mean_anomaly" : "330.2984546084541",
        "mean_motion" : "1.128210802996412",
        "equinox" : "J2000"
      }
    }, {
      "links" : {
        "self" : "https://api.nasa.gov/neo/rest/v1/neo/2277810?api_key=t0TVs3DtDT2H8Oy2Zy8m2eVrNsAVKAexjcZXUckd"
      },
      "neo_reference_id" : "2277810",
      "name" : "277810 (2006 FV35)",
      "nasa_jpl_url" : "http://ssd.jpl.nasa.gov/sbdb.cgi?sstr=2277810",
      "absolute_magnitude_h" : 21.8,
      "estimated_diameter" : {
        "kilometers" : {
          "estimated_diameter_min" : 0.1160259082,
          "estimated_diameter_max" : 0.2594418179
        },
        "meters" : {
          "estimated_diameter_min" : 116.0259082094,
          "estimated_diameter_max" : 259.4418179074
        },
        "miles" : {
          "estimated_diameter_min" : 0.0720951346,
          "estimated_diameter_max" : 0.1612096218
        },
        "feet" : {
          "estimated_diameter_min" : 380.6624406898,
          "estimated_diameter_max" : 851.1870938635
        }
      },
      "is_potentially_hazardous_asteroid" : false,
      "close_approach_data" : [ {
        "close_approach_date" : "2007-04-08",
        "epoch_date_close_approach" : 1176015600000,
        "relative_velocity" : {
          "kilometers_per_second" : "9.5599088975",
          "kilometers_per_hour" : "34415.6720308773",
          "miles_per_hour" : "21384.5602127415"
        },
        "miss_distance" : {
          "astronomical" : "0.331946185",
          "lunar" : "129.1270751953",
          "kilometers" : "49658444",
          "miles" : "30856326"
        },
        "orbiting_body" : "Earth"
      } ],
      "orbital_data" : {
        "orbit_id" : "51",
        "orbit_determination_date" : "2017-04-06 09:24:24",
        "orbit_uncertainty" : "1",
        "minimum_orbit_intersection" : ".104736",
        "jupiter_tisserand_invariant" : "6.003",
        "epoch_osculation" : "2458000.5",
        "eccentricity" : ".3775352983208624",
        "semi_major_axis" : "1.001342942840337",
        "inclination" : "7.104126563177385",
        "ascending_node_longitude" : "179.5057827726986",
        "orbital_period" : "365.9929240029879",
        "perihelion_distance" : ".6233006361936202",
        "perihelion_argument" : "170.8521652770838",
        "aphelion_distance" : "1.379385249487054",
        "perihelion_time" : "2457994.548482506686",
        "mean_anomaly" : "5.854064811306019",
        "mean_motion" : ".983625574130119",
        "equinox" : "J2000"
      }
    } ]
  }
}